[Satellite]
VERSION=1.1
NAME=CZ-6A DEB
NICKNAME=CZ-6A DEB
TLE1=1 54419U 22151ET  22342.26290710  .00010606  00000+0  12555-2 0  9996
TLE2=2 54419  98.6972 348.5268 0231021 185.5085 174.3572 14.67500520  3588
STATUS=0
